FLOCK 4G-13             
1 62621U 25009N   26117.44814366  .00078265  00000+0  20563-2 0  9991
2 62621  97.3974 200.0571 0005621 145.4754 214.6857 15.38299367 71180
FLOCK 4G-9              
1 62622U 25009P   26117.50712314  .00010739  00000+0  40558-3 0  9998
2 62622  97.3963 198.8647 0005984 134.2651 225.9080 15.27167355 71127
FLOCK 4G-7              
1 62624U 25009R   26117.20363136  .00013206  00000+0  48214-3 0  9990
2 62624  97.3950 198.8524 0004227 128.5707 231.5911 15.28242699 71117
FLOCK 4G-12             
1 62625U 25009S   26117.19289320  .00014743  00000+0  53996-3 0  9991
2 62625  97.4024 199.3235 0005729 126.4101 233.7668 15.28105732 71118
FLOCK 4G-11             
1 62629U 25009W   26117.51276947  .00011735  00000+0  42808-3 0  9990
2 62629  97.3930 199.2842 0004225 129.6591 230.5022 15.28299589 71177
PELICAN-2               
1 62631U 25009Y   26117.51368623  .00034826  00000+0  85826-3 0  9999
2 62631  97.3610 208.3311 0002612  98.6816 261.4726 15.40486238 71752
FLOCK 4G-26             
1 62633U 25009AA  26117.46672187  .00012311  00000+0  44797-3 0  9995
2 62633  97.4023 199.7293 0004982 119.5270 240.6467 15.28364385 71164
FLOCK 4G-28             
1 62634U 25009AB  26117.18894826  .00011007  00000+0  33685-3 0  9996
2 62634  97.4024 201.5802 0003424 116.9833 243.1760 15.34001095 71268
FLOCK 4G-20             
1 62636U 25009AD  26117.49589760  .00085117  00000+0  18365-2 0  9990
2 62636  97.3891 200.7777 0004140 166.4898 193.6461 15.44235961 71270
FLOCK 4G-24             
1 62637U 25009AE  26117.17341115  .00014000  00000+0  50064-3 0  9992
2 62637  97.4024 199.6826 0004584 110.7932 249.3799 15.28908242 71133
FLOCK 4G-3              
1 62639U 25009AG  26117.20387388  .00011319  00000+0  41291-3 0  9992
2 62639  97.4029 199.4852 0004508 116.7283 243.4419 15.28307708 71110
FLOCK 4G-27             
1 62641U 25009AJ  26117.48323068  .00014055  00000+0  51212-3 0  9994
2 62641  97.3942 199.2108 0003758 119.9552 240.2061 15.28295090 71150
FLOCK 4G-29             
1 62642U 25009AK  26117.21191261  .00012308  00000+0  44735-3 0  9995
2 62642  97.4024 199.4506 0004499 113.6780 246.4933 15.28405959 71113
FLOCK 4G-22             
1 62645U 25009AN  26117.22330272  .00012539  00000+0  45754-3 0  9994
2 62645  97.4012 199.5265 0003984 113.7264 246.4394 15.28272702 71133
FLOCK 4G-25             
1 62646U 25009AP  26117.46907064  .00011446  00000+0  41562-3 0  9999
2 62646  97.4016 199.8190 0003559 119.5292 240.6302 15.28460140 71175
FLOCK 4G-23             
1 62647U 25009AQ  26117.18169739  .00047783  00000+0  16996-2 0  9993
2 62647  97.3943 199.0419 0002634 135.7356 224.4095 15.28820699 71127
