[{"OBJECT_NAME":"FLOCK 4G-13","OBJECT_ID":"2025-009N","EPOCH":"2026-04-27T10:45:19.612224","MEAN_MOTION":15.38299367,"ECCENTRICITY":0.0005621,"INCLINATION":97.3974,"RA_OF_ASC_NODE":200.0571,"ARG_OF_PERICENTER":145.4754,"MEAN_ANOMALY":214.6857,"EPHEMERIS_TYPE":0,"CLASSIFICATION_TYPE":"U","NORAD_CAT_ID":62621,"ELEMENT_SET_NO":999,"REV_AT_EPOCH":7118,"BSTAR":0.0020563,"MEAN_MOTION_DOT":0.00078265,"MEAN_MOTION_DDOT":0},{"OBJECT_NAME":"FLOCK 4G-9","OBJECT_ID":"2025-009P","EPOCH":"2026-04-27T12:10:15.439296","MEAN_MOTION":15.27167355,"ECCENTRICITY":0.0005984,"INCLINATION":97.3963,"RA_OF_ASC_NODE":198.8647,"ARG_OF_PERICENTER":134.2651,"MEAN_ANOMALY":225.908,"EPHEMERIS_TYPE":0,"CLASSIFICATION_TYPE":"U","NORAD_CAT_ID":62622,"ELEMENT_SET_NO":999,"REV_AT_EPOCH":7112,"BSTAR":0.00040558,"MEAN_MOTION_DOT":0.00010739,"MEAN_MOTION_DDOT":0},{"OBJECT_NAME":"FLOCK 4G-7","OBJECT_ID":"2025-009R","EPOCH":"2026-04-27T04:53:13.749504","MEAN_MOTION":15.28242699,"ECCENTRICITY":0.00042272,"INCLINATION":97.395,"RA_OF_ASC_NODE":198.8524,"ARG_OF_PERICENTER":128.5707,"MEAN_ANOMALY":231.5911,"EPHEMERIS_TYPE":0,"CLASSIFICATION_TYPE":"U","NORAD_CAT_ID":62624,"ELEMENT_SET_NO":999,"REV_AT_EPOCH":7111,"BSTAR":0.00048214451,"MEAN_MOTION_DOT":0.00013206,"MEAN_MOTION_DDOT":0},{"OBJECT_NAME":"FLOCK 4G-12","OBJECT_ID":"2025-009S","EPOCH":"2026-04-27T04:37:45.972480","MEAN_MOTION":15.28105732,"ECCENTRICITY":0.00057299,"INCLINATION":97.4024,"RA_OF_ASC_NODE":199.3235,"ARG_OF_PERICENTER":126.4101,"MEAN_ANOMALY":233.7668,"EPHEMERIS_TYPE":0,"CLASSIFICATION_TYPE":"U","NORAD_CAT_ID":62625,"ELEMENT_SET_NO":999,"REV_AT_EPOCH":7111,"BSTAR":0.00053996368,"MEAN_MOTION_DOT":0.00014743,"MEAN_MOTION_DDOT":0},{"OBJECT_NAME":"FLOCK 4G-11","OBJECT_ID":"2025-009W","EPOCH":"2026-04-27T12:18:23.282208","MEAN_MOTION":15.28299589,"ECCENTRICITY":0.0004225,"INCLINATION":97.393,"RA_OF_ASC_NODE":199.2842,"ARG_OF_PERICENTER":129.6591,"MEAN_ANOMALY":230.5022,"EPHEMERIS_TYPE":0,"CLASSIFICATION_TYPE":"U","NORAD_CAT_ID":62629,"ELEMENT_SET_NO":999,"REV_AT_EPOCH":7117,"BSTAR":0.00042808,"MEAN_MOTION_DOT":0.00011735,"MEAN_MOTION_DDOT":0},{"OBJECT_NAME":"PELICAN-2","OBJECT_ID":"2025-009Y","EPOCH":"2026-04-27T12:19:42.490272","MEAN_MOTION":15.40486238,"ECCENTRICITY":0.0002612,"INCLINATION":97.361,"RA_OF_ASC_NODE":208.3311,"ARG_OF_PERICENTER":98.6816,"MEAN_ANOMALY":261.4726,"EPHEMERIS_TYPE":0,"CLASSIFICATION_TYPE":"U","NORAD_CAT_ID":62631,"ELEMENT_SET_NO":999,"REV_AT_EPOCH":7175,"BSTAR":0.00085826,"MEAN_MOTION_DOT":0.00034826,"MEAN_MOTION_DDOT":0},{"OBJECT_NAME":"FLOCK 4G-26","OBJECT_ID":"2025-009AA","EPOCH":"2026-04-27T11:12:04.769568","MEAN_MOTION":15.28364385,"ECCENTRICITY":0.0004982,"INCLINATION":97.4023,"RA_OF_ASC_NODE":199.7293,"ARG_OF_PERICENTER":119.527,"MEAN_ANOMALY":240.6467,"EPHEMERIS_TYPE":0,"CLASSIFICATION_TYPE":"U","NORAD_CAT_ID":62633,"ELEMENT_SET_NO":999,"REV_AT_EPOCH":7116,"BSTAR":0.00044797,"MEAN_MOTION_DOT":0.00012311,"MEAN_MOTION_DDOT":0},{"OBJECT_NAME":"FLOCK 4G-28","OBJECT_ID":"2025-009AB","EPOCH":"2026-04-27T04:32:05.129664","MEAN_MOTION":15.34001095,"ECCENTRICITY":0.00034243,"INCLINATION":97.4024,"RA_OF_ASC_NODE":201.5802,"ARG_OF_PERICENTER":116.9833,"MEAN_ANOMALY":243.176,"EPHEMERIS_TYPE":0,"CLASSIFICATION_TYPE":"U","NORAD_CAT_ID":62634,"ELEMENT_SET_NO":999,"REV_AT_EPOCH":7126,"BSTAR":0.00033684759,"MEAN_MOTION_DOT":0.00011007,"MEAN_MOTION_DDOT":0},{"OBJECT_NAME":"FLOCK 4G-20","OBJECT_ID":"2025-009AD","EPOCH":"2026-04-27T11:54:05.552640","MEAN_MOTION":15.44235961,"ECCENTRICITY":0.000414,"INCLINATION":97.3891,"RA_OF_ASC_NODE":200.7777,"ARG_OF_PERICENTER":166.4898,"MEAN_ANOMALY":193.6461,"EPHEMERIS_TYPE":0,"CLASSIFICATION_TYPE":"U","NORAD_CAT_ID":62636,"ELEMENT_SET_NO":999,"REV_AT_EPOCH":7127,"BSTAR":0.0018365,"MEAN_MOTION_DOT":0.00085117,"MEAN_MOTION_DDOT":0},{"OBJECT_NAME":"FLOCK 4G-24","OBJECT_ID":"2025-009AE","EPOCH":"2026-04-27T04:09:42.723360","MEAN_MOTION":15.28908242,"ECCENTRICITY":0.0004584,"INCLINATION":97.4024,"RA_OF_ASC_NODE":199.6826,"ARG_OF_PERICENTER":110.7932,"MEAN_ANOMALY":249.3799,"EPHEMERIS_TYPE":0,"CLASSIFICATION_TYPE":"U","NORAD_CAT_ID":62637,"ELEMENT_SET_NO":999,"REV_AT_EPOCH":7113,"BSTAR":0.00050064441,"MEAN_MOTION_DOT":0.00014,"MEAN_MOTION_DDOT":0},{"OBJECT_NAME":"FLOCK 4G-3","OBJECT_ID":"2025-009AG","EPOCH":"2026-04-27T04:53:34.703232","MEAN_MOTION":15.28307708,"ECCENTRICITY":0.00045088,"INCLINATION":97.4029,"RA_OF_ASC_NODE":199.4852,"ARG_OF_PERICENTER":116.7283,"MEAN_ANOMALY":243.4419,"EPHEMERIS_TYPE":0,"CLASSIFICATION_TYPE":"U","NORAD_CAT_ID":62639,"ELEMENT_SET_NO":999,"REV_AT_EPOCH":7111,"BSTAR":0.00041291151,"MEAN_MOTION_DOT":0.00011319,"MEAN_MOTION_DDOT":0},{"OBJECT_NAME":"FLOCK 4G-27","OBJECT_ID":"2025-009AJ","EPOCH":"2026-04-27T11:35:51.130752","MEAN_MOTION":15.2829509,"ECCENTRICITY":0.0003758,"INCLINATION":97.3942,"RA_OF_ASC_NODE":199.2108,"ARG_OF_PERICENTER":119.9552,"MEAN_ANOMALY":240.2061,"EPHEMERIS_TYPE":0,"CLASSIFICATION_TYPE":"U","NORAD_CAT_ID":62641,"ELEMENT_SET_NO":999,"REV_AT_EPOCH":7115,"BSTAR":0.00051212,"MEAN_MOTION_DOT":0.00014055,"MEAN_MOTION_DDOT":0},{"OBJECT_NAME":"FLOCK 4G-29","OBJECT_ID":"2025-009AK","EPOCH":"2026-04-27T05:05:09.249504","MEAN_MOTION":15.28405959,"ECCENTRICITY":0.00044992,"INCLINATION":97.4024,"RA_OF_ASC_NODE":199.4506,"ARG_OF_PERICENTER":113.678,"MEAN_ANOMALY":246.4933,"EPHEMERIS_TYPE":0,"CLASSIFICATION_TYPE":"U","NORAD_CAT_ID":62642,"ELEMENT_SET_NO":999,"REV_AT_EPOCH":7111,"BSTAR":0.00044734626,"MEAN_MOTION_DOT":0.00012308,"MEAN_MOTION_DDOT":0},{"OBJECT_NAME":"FLOCK 4G-22","OBJECT_ID":"2025-009AN","EPOCH":"2026-04-27T05:21:33.355008","MEAN_MOTION":15.28272702,"ECCENTRICITY":0.0003984,"INCLINATION":97.4012,"RA_OF_ASC_NODE":199.5265,"ARG_OF_PERICENTER":113.7264,"MEAN_ANOMALY":246.4394,"EPHEMERIS_TYPE":0,"CLASSIFICATION_TYPE":"U","NORAD_CAT_ID":62645,"ELEMENT_SET_NO":999,"REV_AT_EPOCH":7113,"BSTAR":0.00045754,"MEAN_MOTION_DOT":0.00012539,"MEAN_MOTION_DDOT":0},{"OBJECT_NAME":"FLOCK 4G-25","OBJECT_ID":"2025-009AP","EPOCH":"2026-04-27T11:15:27.703296","MEAN_MOTION":15.2846014,"ECCENTRICITY":0.0003559,"INCLINATION":97.4016,"RA_OF_ASC_NODE":199.819,"ARG_OF_PERICENTER":119.5292,"MEAN_ANOMALY":240.6302,"EPHEMERIS_TYPE":0,"CLASSIFICATION_TYPE":"U","NORAD_CAT_ID":62646,"ELEMENT_SET_NO":999,"REV_AT_EPOCH":7117,"BSTAR":0.00041562,"MEAN_MOTION_DOT":0.00011446,"MEAN_MOTION_DDOT":0},{"OBJECT_NAME":"FLOCK 4G-23","OBJECT_ID":"2025-009AQ","EPOCH":"2026-04-27T04:21:38.654496","MEAN_MOTION":15.28820699,"ECCENTRICITY":0.00026344,"INCLINATION":97.3943,"RA_OF_ASC_NODE":199.0419,"ARG_OF_PERICENTER":135.7356,"MEAN_ANOMALY":224.4095,"EPHEMERIS_TYPE":0,"CLASSIFICATION_TYPE":"U","NORAD_CAT_ID":62647,"ELEMENT_SET_NO":999,"REV_AT_EPOCH":7112,"BSTAR":0.0016995921,"MEAN_MOTION_DOT":0.00047783,"MEAN_MOTION_DDOT":0}]
